ONEWEB-0171             
1 48070U 21025AE  25014.55356653 -.00000333  00000+0 -94752-3 0  9999
2 48070  87.8898  63.3833 0001870 102.5929 257.5409 13.13469637185536
ONEWEB-0172             
1 48071U 21025AF  25014.60912329 -.00000241  00000+0 -69510-3 0  9996
2 48071  87.8899  63.3385 0001979 102.9527 257.1823 13.13467822186438
ONEWEB-0174             
1 48072U 21025AG  25014.59166540  .00000196  00000+0  50162-3 0  9991
2 48072  87.8899  63.3564 0001944  96.4863 263.6488 13.13467484185757
ONEWEB-0175             
1 48073U 21025AH  25014.54403903 -.00000289  00000+0 -82708-3 0  9990
2 48073  87.8890  63.3413 0001716 110.2680 249.8634 13.13467884185406
ONEWEB-0177             
1 48074U 21025AJ  25014.55674684 -.00000042  00000+0 -14938-3 0  9995
2 48074  87.8892  63.3502 0002196  99.2921 260.8457 13.13469636185598
ONEWEB-0178             
1 48075U 21025AK  25014.57434447  .00000364  00000+0  96247-3 0  9997
2 48075  87.8900  63.3793 0002057 100.4264 259.7097 13.13469347185644
ONEWEB-0108             
1 48076U 21025AL  25014.61070523 -.00000264  00000+0 -75875-3 0  9999
2 48076  87.8892  63.3353 0001731  92.7402 267.3925 13.13469041185570
ONEWEB-0169             
1 48077U 21025AM  25014.56626838  .00000234  00000+0  60540-3 0  9998
2 48077  87.8894  63.3599 0001733  91.5156 268.6172 13.13468500184228
